ONEWEB-0665             
1 55825U 23029AF  25166.87957957 -.00000186  00000+0 -53717-3 0  9990
2 55825  87.9035   2.6045 0001836  97.5323 262.6015 13.14501164111284
ONEWEB-0666             
1 55826U 23029AG  25166.52227502  .00000086  00000+0  17897-3 0  9995
2 55826  87.9263 347.5121 0001844  79.0184 281.1157 13.20772749112755
ONEWEB-0667             
1 55827U 23029AH  25166.59172192  .00000068  00000+0  13505-3 0  9999
2 55827  87.9262 347.4303 0001690  96.6645 263.4680 13.20772458112753
ONEWEB-0669             
1 55828U 23029AJ  25166.89002278 -.00000017  00000+0 -74407-4 0  9995
2 55828  87.9262 347.4067 0001402  69.6626 290.4658 13.20772187112799
ONEWEB-0670             
1 55829U 23029AK  25166.55291249  .00000077  00000+0  17218-3 0  9997
2 55829  87.9040   2.6878 0001469  97.2139 262.9158 13.14501347111264
ONEWEB-0671             
1 55830U 23029AL  25166.86838700 -.00000033  00000+0 -11556-3 0  9995
2 55830  87.9219  17.8064 0001663  92.2255 267.9068 13.19727159110584
ONEWEB-0672             
1 55831U 23029AM  25166.73376935  .00000097  00000+0  20770-3 0  9995
2 55831  87.9263 347.4236 0001898  81.4892 278.6456 13.20770679112774
ONEWEB-0673             
1 55832U 23029AN  25166.08652836  .00000138  00000+0  31344-3 0  9996
2 55832  87.9220  17.9252 0001986  91.7823 268.3537 13.19726897110484
